NORAD_CAT_ID,OBJECT_NAME,OBJECT_TYPE,EPOCH,MEAN_MOTION,ECCENTRICITY,INCLINATION,RA_OF_ASC_NODE,ARG_OF_PERICENTER,MEAN_ANOMALY,BSTAR,MEAN_MOTION_DOT,MEAN_MOTION_DDOT,TLE_LINE0,TLE_LINE1,TLE_LINE2,SEMIMAJOR_AXIS,PERIOD,APOGEE,PERIGEE,DECAYED
51989.0,STARLINK-3642,PAYLOAD,2022-03-16 14:00:01,15.82827064,0.0001109,53.2173,105.1641,75.1397,163.4922,-0.0044725,-0.00875596,0.0,0 STARLINK-3642,1 51989U 22025AK  22075.58334491 -.00875596  00000-0 -44725-2 0  9992,2 51989  53.2173 105.1641 0001109  75.1397 163.4922 15.82827064  2389,6700.587,90.976,323.195,321.709,0.0
51989.0,STARLINK-3642,PAYLOAD,2022-03-16 20:00:01,15.82357306,0.0001227,53.2176,103.908,59.0567,164.7303,-0.0045971,-0.00879795,0.0,0 STARLINK-3642,1 51989U 22025AK  22075.83334491 -.00879795  00000-0 -45971-2 0  9999,2 51989  53.2176 103.9080 0001227  59.0567 164.7303 15.82357306  1356,6701.913000000001,91.003,324.601,322.956,0.0
51989.0,STARLINK-3642,PAYLOAD,2022-03-17 04:00:00,15.81730141,0.0001206,53.2175,102.2371,45.2719,278.0583,-0.0047502,-0.00882359,0.0,0 STARLINK-3642,1 51989U 22025AK  22076.16667824 -.00882359  00000-0 -47502-2 0  9997,2 51989  53.2175 102.2371 0001206  45.2719 278.0583 15.81730141  2477,6703.685,91.04,326.358,324.741,0.0
51989.0,STARLINK-3642,PAYLOAD,2022-03-17 14:00:01,15.80940091,0.0001122,53.2171,100.1516,70.7851,105.9129,-0.0048955,-0.00876905,0.0,0 STARLINK-3642,1 51989U 22025AK  22076.58334491 -.00876905  00000-0 -48955-2 0  9997,2 51989  53.2171 100.1516 0001122  70.7851 105.9129 15.80940091  1477,6705.918000000002,91.085,328.535,327.031,0.0
51989.0,STARLINK-3642,PAYLOAD,2022-03-17 22:00:00,15.80309416,0.0001046,53.2174,98.4817,85.5506,188.9924,-0.0050268,-0.00874651,0.0,0 STARLINK-3642,1 51989U 22025AK  22076.91667824 -.00874651  00000-0 -50268-2 0  9999,2 51989  53.2174  98.4817 0001046  85.5506 188.9924 15.80309416  1529,6707.7019999999975,91.121,330.269,328.865,0.0
51989.0,STARLINK-3642,PAYLOAD,2022-03-18 04:00:00,15.79838958,0.0001202,53.2178,97.2327,63.782,193.6459,-0.0051524,-0.00877049,0.0,0 STARLINK-3642,1 51989U 22025AK  22077.16667824 -.00877049  00000-0 -51524-2 0  9997,2 51989  53.2178  97.2327 0001202  63.7820 193.6459 15.79838958  2632,6709.034000000002,91.149,331.705,330.092,0.0
51989.0,STARLINK-3642,PAYLOAD,2022-03-18 14:00:01,15.79052811,0.0001138,53.2171,95.1527,59.0535,48.9049,-0.0053445,-0.00877454,0.0,0 STARLINK-3642,1 51989U 22025AK  22077.58334491 -.00877454  00000-0 -53445-2 0  9998,2 51989  53.2171  95.1527 0001138  59.0535  48.9049 15.79052811  1635,6711.26,91.194,333.889,332.361,0.0
51989.0,STARLINK-3642,PAYLOAD,2022-03-18 22:00:00,15.78422291,0.0001306,53.2171,93.4876,53.1086,150.4259,-0.0054841,-0.00875177,0.0,0 STARLINK-3642,1 51989U 22025AK  22077.91667824 -.00875177  00000-0 -54841-2 0  9995,2 51989  53.2171  93.4876 0001306  53.1086 150.4259 15.78422291  1685,6713.047,91.23,335.789,334.036,0.0
51989.0,STARLINK-3642,PAYLOAD,2022-03-19 02:00:01,15.78107377,0.000125,53.2175,92.6569,48.7636,22.3401,-0.0055588,-0.00874563,0.0,0 STARLINK-3642,1 51989U 22025AK  22078.08335648 -.00874563  00000-0 -55588-2 0  9997,2 51989  53.2175  92.6569 0001250  48.7636  22.3401 15.78107377  2770,6713.94,91.249,336.645,334.966,0.0
51989.0,STARLINK-3642,PAYLOAD,2022-03-19 14:00:01,15.77164712,9.66e-05,53.2171,90.168,74.0674,318.3459,-0.005809,-0.00875692,0.0,0 STARLINK-3642,1 51989U 22025AK  22078.58334491 -.00875692  00000-0 -58090-2 0  9992,2 51989  53.2171  90.1680 0000966  74.0674 318.3459 15.77164712  1797,6716.615,91.303,339.129,337.831,0.0
51989.0,STARLINK-3642,PAYLOAD,2022-03-19 20:00:01,15.76690581,0.0001066,53.2175,88.9224,53.9258,318.5393,-0.0059133,-0.00873012,0.0,0 STARLINK-3642,1 51989U 22025AK  22078.83334491 -.00873012  00000-0 -59133-2 0  9993,2 51989  53.2175  88.9224 0001066  53.9258 318.5393 15.76690581  2894,6717.962,91.331,340.543,339.111,0.0
51989.0,STARLINK-3642,PAYLOAD,2022-03-19 22:00:01,15.76534579,0.0001246,53.2173,88.5074,52.7966,72.9895,-0.0059729,-0.00875494,0.0,0 STARLINK-3642,1 51989U 22025AK  22078.91668981 -.00875494  00000-0 -59729-2 0  9993,2 51989  53.2173  88.5074 0001246  52.7966  72.9895 15.76534579  1840,6718.405,91.34,341.107,339.43300000000005,0.0
51989.0,STARLINK-3642,PAYLOAD,2022-03-20 12:00:00,15.75430245,0.0001190999999999,53.2172,85.6112,71.5554,125.6299,-0.0062224,-0.00869116,0.0,0 STARLINK-3642,1 51989U 22025AK  22079.50001157 -.00869116  00000-0 -62224-2 0  9993,2 51989  53.2172  85.6112 0001191  71.5554 125.6299 15.75430245  2996,6721.544,91.404,344.21,342.6090000000001,0.0
51989.0,STARLINK-3642,PAYLOAD,2022-03-20 14:00:01,15.75276936,0.0001034,53.2172,85.1969,76.7137,233.3479,-0.0063168999999999,-0.00875623,0.0,0 STARLINK-3642,1 51989U 22025AK  22079.58334491 -.00875623  00000-0 -63169-2 0  9990,2 51989  53.2172  85.1969 0001034  76.7137 233.3479 15.75276936  1958,6721.98,91.412,344.54,343.15,0.0
51989.0,STARLINK-3642,PAYLOAD,2022-03-20 22:00:01,15.74645568,0.0001104,53.2172,83.5412,56.4241,344.7426,-0.0064782,-0.00873651,0.0,0 STARLINK-3642,1 51989U 22025AK  22079.91668981 -.00873651  00000-0 -64782-2 0  9992,2 51989  53.2172  83.5412 0001104  56.4241 344.7426 15.74645568  2008,6723.776999999999,91.449,346.384,344.9,0.0
51989.0,STARLINK-3642,PAYLOAD,2022-03-21 04:00:00,15.74176777,0.0001209,53.2174,82.3032,48.3565,330.5243,-0.0066547,-0.00878742,0.0,0 STARLINK-3642,1 51989U 22025AK  22080.16667824 -.00878742  00000-0 -66547-2 0  9993,2 51989  53.2174  82.3032 0001209  48.3565 330.5243 15.74176777  3103,6725.111999999999,91.476,347.79,346.164,0.0
51989.0,STARLINK-3642,PAYLOAD,2022-03-21 12:00:00,15.73358925,0.0001032,53.2171,80.653,63.2304,45.3925,-0.0016854,-0.00232308,0.0,0 STARLINK-3642,1 51989U 22025AK  22080.50001157 -.00232308  00000-0 -16854-2 0  9990,2 51989  53.2171  80.6530 0001032  63.2304  45.3925 15.73358925  3154,6727.441999999999,91.524,350.001,348.61300000000006,0.0
51989.0,STARLINK-3642,PAYLOAD,2022-03-21 14:00:01,15.73241692,0.0001193,53.2171,80.2399,67.0593,153.8614,-0.00044375,-0.00062546,0.0,0 STARLINK-3642,1 51989U 22025AK  22080.58334491 -.00062546  00000-0 -44375-3 0  9993,2 51989  53.2171  80.2399 0001193  67.0593 153.8614 15.73241692  2109,6727.776,91.531,350.444,348.839,0.0
51989.0,STARLINK-3642,PAYLOAD,2022-03-21 20:00:01,15.73204357,0.0001216,53.2174,79.0011,61.0718,136.5674,5.5265e-06,1.56e-06,0.0,0 STARLINK-3642,1 51989U 22025AK  22080.83334491  .00000156  00000-0  55265-5 0  9990,2 51989  53.2174  79.0011 0001216  61.0718 136.5674 15.73204357  3201,6727.8830000000025,91.533,350.566,348.93,0.0
51989.0,STARLINK-3642,PAYLOAD,2022-03-21 22:00:00,15.73204127,0.0001190999999999,53.2174,78.5885,65.3149,244.5583,6.985500000000001e-07,-5.22e-06,0.0,0 STARLINK-3642,1 51989U 22025AK  22080.91667824 -.00000522  00000-0  69855-6 0  9997,2 51989  53.2174  78.5885 0001191  65.3149 244.5583 15.73204127  2169,6727.8830000000025,91.533,350.55,348.94699999999995,0.0
51989.0,STARLINK-3642,PAYLOAD,2022-03-22 12:00:00,15.73240899,0.0001274,53.2193,75.7123,49.3518,326.1932,0.00035772,0.00049971,0.0,0 STARLINK-3642,1 51989U 22025AK  22081.50001157  .00049971  00000-0  35772-3 0  9992,2 51989  53.2193  75.7123 0001274  49.3518 326.1932 15.73240899  3317,6727.779,91.531,350.501,348.786,0.0
51989.0,STARLINK-3642,PAYLOAD,2022-03-22 14:00:01,15.73289449,0.0001258,53.2193,75.2993,54.576,73.205,-0.00036281,-0.00051422,0.0,0 STARLINK-3642,1 51989U 22025AK  22081.58334491 -.00051422  00000-0 -36281-3 0  9992,2 51989  53.2193  75.2993 0001258  54.5760  73.2050 15.73289449  2264,6727.64,91.528,350.351,348.659,0.0
51989.0,STARLINK-3642,PAYLOAD,2022-03-22 20:00:01,15.73238379,0.0001121,53.2194,74.0608,66.2917,38.2697,0.00014131,0.0001929,0.0,0 STARLINK-3642,1 51989U 22025AK  22081.83334491  .00019290  00000-0  14131-3 0  9995,2 51989  53.2194  74.0608 0001121  66.2917  38.2697 15.73238379  3364,6727.786,91.531,350.405,348.897,0.0
51989.0,STARLINK-3642,PAYLOAD,2022-03-22 22:00:01,15.73238759,0.0001159,53.2195,73.6481,69.8668,147.0074,0.00011172,0.00015113,0.0,0 STARLINK-3642,1 51989U 22025AK  22081.91668981  .00015113  00000-0  11172-3 0  9990,2 51989  53.2195  73.6481 0001159  69.8668 147.0074 15.73238759  2327,6727.785,91.531,350.42900000000014,348.87,0.0
51989.0,STARLINK-3642,PAYLOAD,2022-03-23 04:00:00,15.73250717,0.0001224,53.2199,72.4127,62.9031,130.6389,-0.00039903,-0.00056368,0.0,0 STARLINK-3642,1 51989U 22025AK  22082.16667824 -.00056368  00000-0 -39903-3 0  9994,2 51989  53.2199  72.4127 0001224  62.9031 130.6389 15.73250717  3412,6727.751,91.53,350.439,348.792,0.0
51989.0,STARLINK-3642,PAYLOAD,2022-03-23 14:00:01,15.7320489,0.0001283,53.2199,70.3511,61.1669,333.5743,-6.4443e-05,-9.655e-05,0.0,0 STARLINK-3642,1 51989U 22025AK  22082.58334491 -.00009655  00000-0 -64443-4 0  9996,2 51989  53.2199  70.3511 0001283  61.1669 333.5743 15.73204890  2428,6727.880999999999,91.533,350.6090000000001,348.8830000000001,0.0
51989.0,STARLINK-3642,PAYLOAD,2022-03-23 20:00:01,15.73169199,0.0001257,53.2201,69.1125,69.6207,301.8155,0.00061797,0.00086894,0.0,0 STARLINK-3642,1 51989U 22025AK  22082.83334491  .00086894  00000-0  61797-3 0  9990,2 51989  53.2201  69.1125 0001257  69.6207 301.8155 15.73169199  3520,6727.983,91.535,350.694,349.00199999999984,0.0
51989.0,STARLINK-3642,PAYLOAD,2022-03-23 22:00:00,15.73204301,0.0001286999999999,53.2203,68.7001,72.3562,51.3,0.00023651,0.00032708,0.0,0 STARLINK-3642,1 51989U 22025AK  22082.91667824  .00032708  00000-0  23651-3 0  9990,2 51989  53.2203  68.7001 0001287  72.3562  51.3000 15.73204301  2472,6727.8830000000025,91.533,350.61400000000015,348.88199999999995,0.0
51989.0,STARLINK-3642,PAYLOAD,2022-03-24 04:00:00,15.73237755,0.0001274,53.2203,67.4648,63.9415,36.429,-0.00048143,-0.00067752,0.0,0 STARLINK-3642,1 51989U 22025AK  22083.16667824 -.00067752  00000-0 -48143-3 0  9990,2 51989  53.2203  67.4648 0001274  63.9415  36.4290 15.73237755  3570,6727.788000000001,91.531,350.51,348.795,0.0
